IRIDIUM 57 [-]          
1 25273U 98019B   24072.16323888  .00000442  00000+0  14824-3 0  9991
2 25273  86.4008 338.7683 0002137  86.5992 273.5449 14.35114518358718
IRIDIUM 63 [-]          
1 25286U 98021B   24072.08384556  .00000434  00000+0  14369-3 0  9993
2 25286  86.3928 275.7015 0001995  84.0110 276.1314 14.35631485357791
IRIDIUM 69 [-]          
1 25319U 98026A   24072.15843109  .00000515  00000+0  15792-3 0  9998
2 25319  86.3940 290.3590 0004332  97.2928 262.8763 14.39826173356797
IRIDIUM 71 [-]          
1 25320U 98026B   24071.83258831  .00000546  00000+0  16668-3 0  9993
2 25320  86.3929 285.2756 0003145 130.1199 230.0276 14.40151792357271
IRIDIUM 73 [-]          
1 25344U 98032C   24071.75259413  .00000803  00000+0  20076-3 0  9998
2 25344  86.4390 242.8553 0002717  95.7940 264.3575 14.50337113363800
IRIDIUM 2 [-]           
1 25527U 98066A   24071.97951589  .00072413  00000+0  92248-3 0  9991
2 25527  85.5166   5.8013 0005167  63.1605 297.0186 15.59056701392164
