<?xml version="1.0" encoding="UTF-8"?>
<ndm xmlns:xsi="http://www.w3.org/2001/XMLSchema-instance" xsi:noNamespaceSchemaLocation="https://sanaregistry.org/r/ndmxml_unqualified/ndmxml-2.0.0-master-2.0.xsd">
<omm id="CCSDS_OMM_VERS" version="2.0">
<header><CREATION_DATE/><ORIGINATOR/></header><body><segment><metadata><OBJECT_NAME>IRIDIUM 57 [-]</OBJECT_NAME><OBJECT_ID>1998-019B</OBJECT_ID><CENTER_NAME>EARTH</CENTER_NAME><REF_FRAME>TEME</REF_FRAME><TIME_SYSTEM>UTC</TIME_SYSTEM><MEAN_ELEMENT_THEORY>SGP4</MEAN_ELEMENT_THEORY></metadata><data><meanElements><EPOCH>2024-03-12T03:55:03.839232</EPOCH><MEAN_MOTION>14.35114518</MEAN_MOTION><ECCENTRICITY>.0002137</ECCENTRICITY><INCLINATION>86.4008</INCLINATION><RA_OF_ASC_NODE>338.7683</RA_OF_ASC_NODE><ARG_OF_PERICENTER>86.5992</ARG_OF_PERICENTER><MEAN_ANOMALY>273.5449</MEAN_ANOMALY></meanElements><tleParameters><EPHEMERIS_TYPE>0</EPHEMERIS_TYPE><CLASSIFICATION_TYPE>U</CLASSIFICATION_TYPE><NORAD_CAT_ID>25273</NORAD_CAT_ID><ELEMENT_SET_NO>999</ELEMENT_SET_NO><REV_AT_EPOCH>35871</REV_AT_EPOCH><BSTAR>.14824E-3</BSTAR><MEAN_MOTION_DOT>.442E-5</MEAN_MOTION_DOT><MEAN_MOTION_DDOT>0</MEAN_MOTION_DDOT></tleParameters></data></segment></body></omm>
<omm id="CCSDS_OMM_VERS" version="2.0">
<header><CREATION_DATE/><ORIGINATOR/></header><body><segment><metadata><OBJECT_NAME>IRIDIUM 63 [-]</OBJECT_NAME><OBJECT_ID>1998-021B</OBJECT_ID><CENTER_NAME>EARTH</CENTER_NAME><REF_FRAME>TEME</REF_FRAME><TIME_SYSTEM>UTC</TIME_SYSTEM><MEAN_ELEMENT_THEORY>SGP4</MEAN_ELEMENT_THEORY></metadata><data><meanElements><EPOCH>2024-03-12T02:00:44.256384</EPOCH><MEAN_MOTION>14.35631485</MEAN_MOTION><ECCENTRICITY>.0001995</ECCENTRICITY><INCLINATION>86.3928</INCLINATION><RA_OF_ASC_NODE>275.7015</RA_OF_ASC_NODE><ARG_OF_PERICENTER>84.0110</ARG_OF_PERICENTER><MEAN_ANOMALY>276.1314</MEAN_ANOMALY></meanElements><tleParameters><EPHEMERIS_TYPE>0</EPHEMERIS_TYPE><CLASSIFICATION_TYPE>U</CLASSIFICATION_TYPE><NORAD_CAT_ID>25286</NORAD_CAT_ID><ELEMENT_SET_NO>999</ELEMENT_SET_NO><REV_AT_EPOCH>35779</REV_AT_EPOCH><BSTAR>.14369E-3</BSTAR><MEAN_MOTION_DOT>.434E-5</MEAN_MOTION_DOT><MEAN_MOTION_DDOT>0</MEAN_MOTION_DDOT></tleParameters></data></segment></body></omm>
<omm id="CCSDS_OMM_VERS" version="2.0">
<header><CREATION_DATE/><ORIGINATOR/></header><body><segment><metadata><OBJECT_NAME>IRIDIUM 69 [-]</OBJECT_NAME><OBJECT_ID>1998-026A</OBJECT_ID><CENTER_NAME>EARTH</CENTER_NAME><REF_FRAME>TEME</REF_FRAME><TIME_SYSTEM>UTC</TIME_SYSTEM><MEAN_ELEMENT_THEORY>SGP4</MEAN_ELEMENT_THEORY></metadata><data><meanElements><EPOCH>2024-03-12T03:48:08.446176</EPOCH><MEAN_MOTION>14.39826173</MEAN_MOTION><ECCENTRICITY>.0004332</ECCENTRICITY><INCLINATION>86.3940</INCLINATION><RA_OF_ASC_NODE>290.3590</RA_OF_ASC_NODE><ARG_OF_PERICENTER>97.2928</ARG_OF_PERICENTER><MEAN_ANOMALY>262.8763</MEAN_ANOMALY></meanElements><tleParameters><EPHEMERIS_TYPE>0</EPHEMERIS_TYPE><CLASSIFICATION_TYPE>U</CLASSIFICATION_TYPE><NORAD_CAT_ID>25319</NORAD_CAT_ID><ELEMENT_SET_NO>999</ELEMENT_SET_NO><REV_AT_EPOCH>35679</REV_AT_EPOCH><BSTAR>.15792E-3</BSTAR><MEAN_MOTION_DOT>.515E-5</MEAN_MOTION_DOT><MEAN_MOTION_DDOT>0</MEAN_MOTION_DDOT></tleParameters></data></segment></body></omm>
<omm id="CCSDS_OMM_VERS" version="2.0">
<header><CREATION_DATE/><ORIGINATOR/></header><body><segment><metadata><OBJECT_NAME>IRIDIUM 71 [-]</OBJECT_NAME><OBJECT_ID>1998-026B</OBJECT_ID><CENTER_NAME>EARTH</CENTER_NAME><REF_FRAME>TEME</REF_FRAME><TIME_SYSTEM>UTC</TIME_SYSTEM><MEAN_ELEMENT_THEORY>SGP4</MEAN_ELEMENT_THEORY></metadata><data><meanElements><EPOCH>2024-03-11T19:58:55.629984</EPOCH><MEAN_MOTION>14.40151792</MEAN_MOTION><ECCENTRICITY>.0003145</ECCENTRICITY><INCLINATION>86.3929</INCLINATION><RA_OF_ASC_NODE>285.2756</RA_OF_ASC_NODE><ARG_OF_PERICENTER>130.1199</ARG_OF_PERICENTER><MEAN_ANOMALY>230.0276</MEAN_ANOMALY></meanElements><tleParameters><EPHEMERIS_TYPE>0</EPHEMERIS_TYPE><CLASSIFICATION_TYPE>U</CLASSIFICATION_TYPE><NORAD_CAT_ID>25320</NORAD_CAT_ID><ELEMENT_SET_NO>999</ELEMENT_SET_NO><REV_AT_EPOCH>35727</REV_AT_EPOCH><BSTAR>.16668E-3</BSTAR><MEAN_MOTION_DOT>.546E-5</MEAN_MOTION_DOT><MEAN_MOTION_DDOT>0</MEAN_MOTION_DDOT></tleParameters></data></segment></body></omm>
<omm id="CCSDS_OMM_VERS" version="2.0">
<header><CREATION_DATE/><ORIGINATOR/></header><body><segment><metadata><OBJECT_NAME>IRIDIUM 73 [-]</OBJECT_NAME><OBJECT_ID>1998-032C</OBJECT_ID><CENTER_NAME>EARTH</CENTER_NAME><REF_FRAME>TEME</REF_FRAME><TIME_SYSTEM>UTC</TIME_SYSTEM><MEAN_ELEMENT_THEORY>SGP4</MEAN_ELEMENT_THEORY></metadata><data><meanElements><EPOCH>2024-03-11T18:03:44.132832</EPOCH><MEAN_MOTION>14.50337113</MEAN_MOTION><ECCENTRICITY>.0002717</ECCENTRICITY><INCLINATION>86.4390</INCLINATION><RA_OF_ASC_NODE>242.8553</RA_OF_ASC_NODE><ARG_OF_PERICENTER>95.7940</ARG_OF_PERICENTER><MEAN_ANOMALY>264.3575</MEAN_ANOMALY></meanElements><tleParameters><EPHEMERIS_TYPE>0</EPHEMERIS_TYPE><CLASSIFICATION_TYPE>U</CLASSIFICATION_TYPE><NORAD_CAT_ID>25344</NORAD_CAT_ID><ELEMENT_SET_NO>999</ELEMENT_SET_NO><REV_AT_EPOCH>36380</REV_AT_EPOCH><BSTAR>.20076E-3</BSTAR><MEAN_MOTION_DOT>.803E-5</MEAN_MOTION_DOT><MEAN_MOTION_DDOT>0</MEAN_MOTION_DDOT></tleParameters></data></segment></body></omm>
<omm id="CCSDS_OMM_VERS" version="2.0">
<header><CREATION_DATE/><ORIGINATOR/></header><body><segment><metadata><OBJECT_NAME>IRIDIUM 2 [-]</OBJECT_NAME><OBJECT_ID>1998-066A</OBJECT_ID><CENTER_NAME>EARTH</CENTER_NAME><REF_FRAME>TEME</REF_FRAME><TIME_SYSTEM>UTC</TIME_SYSTEM><MEAN_ELEMENT_THEORY>SGP4</MEAN_ELEMENT_THEORY></metadata><data><meanElements><EPOCH>2024-03-11T23:30:30.172896</EPOCH><MEAN_MOTION>15.59056701</MEAN_MOTION><ECCENTRICITY>.0005167</ECCENTRICITY><INCLINATION>85.5166</INCLINATION><RA_OF_ASC_NODE>5.8013</RA_OF_ASC_NODE><ARG_OF_PERICENTER>63.1605</ARG_OF_PERICENTER><MEAN_ANOMALY>297.0186</MEAN_ANOMALY></meanElements><tleParameters><EPHEMERIS_TYPE>0</EPHEMERIS_TYPE><CLASSIFICATION_TYPE>U</CLASSIFICATION_TYPE><NORAD_CAT_ID>25527</NORAD_CAT_ID><ELEMENT_SET_NO>999</ELEMENT_SET_NO><REV_AT_EPOCH>39216</REV_AT_EPOCH><BSTAR>.92248E-3</BSTAR><MEAN_MOTION_DOT>.72413E-3</MEAN_MOTION_DOT><MEAN_MOTION_DDOT>0</MEAN_MOTION_DDOT></tleParameters></data></segment></body></omm>
</ndm>
